TIANMU-1 20             
1 58661U 23208B   26198.48136660  .00004430  00000+0  14063-3 0  9998
2 58661  97.4473 315.6157 0006553 203.3202 156.7744 15.33185485142061
TIANMU-1 21             
1 58662U 23208C   26198.61881037  .00005443  00000+0  15969-3 0  9990
2 58662  97.4534 318.5685 0006930 195.2299 164.8737 15.35578678142235
TIANMU-1 22             
1 58663U 23208D   26198.59007475  .00003967  00000+0  13322-3 0  9994
2 58663  97.4526 314.9677 0002980 207.5741 152.5343 15.31446647141982
TIANMU-1 15             
1 58700U 24004A   26198.63752236  .00002821  00000+0  10950-3 0  9990
2 58700  97.4671  24.8282 0006243 218.2692 141.8105 15.26928037140421
TIANMU-1 16             
1 58701U 24004B   26198.62682333  .00002635  00000+0  10217-3 0  9999
2 58701  97.4619  24.0328 0004584 234.2531 125.8281 15.27030944140422
TIANMU-1 17             
1 58702U 24004C   26198.61230899  .00002657  00000+0  10301-3 0  9993
2 58702  97.4646  24.5144 0004030 240.4609 119.6228 15.27028662140410
TIANMU-1 18             
1 58703U 24004D   26198.65406400  .00002680  00000+0  10413-3 0  9991
2 58703  97.4663  24.8190 0003958 213.8149 146.2838 15.26943844140426
INSAT-3DS               
1 58990U 24033A   26198.64059036 -.00000165  00000+0  00000+0 0  9993
2 58990   0.0841 264.3115 0001158 223.5226 120.2950  1.00270812 47376
METEOR-M2 4             
1 59051U 24039A   26198.64149472 -.00000012  00000+0  14058-4 0  9996
2 59051  98.7027 157.5596 0008258  82.7369 277.4747 14.22432280123597
GOES 19                 
1 60133U 24119A   26198.60948078 -.00000258  00000+0  00000+0 0  9992
2 60133   0.0157 138.2353 0000390  61.7008 239.7004  1.00270922  7260
MTG-S1                  
1 64723U 25143A   26198.62421418 -.00000016  00000+0  00000+0 0  9997
2 64723   0.5833 345.6907 0003357 260.0967 273.9825  1.00274262  3727
METOP-SGA1              
1 65159U 25172A   26195.76442858  .00000019  00000+0  29163-4 0  9994
2 65159  98.6631 254.9090 0007098 333.3306  26.7504 14.19819127 47700
FENGYUN 3H              
1 65815U 25219A   26198.27101199  .00000002  00000+0  21451-4 0  9998
2 65815  98.6770 138.4561 0001092  62.3370 297.7917 14.19924971 41650
