OBJECT_NAME,OBJECT_ID,EPOCH,MEAN_MOTION,ECCENTRICITY,INCLINATION,RA_OF_ASC_NODE,ARG_OF_PERICENTER,MEAN_ANOMALY,EPHEMERIS_TYPE,CLASSIFICATION_TYPE,NORAD_CAT_ID,ELEMENT_SET_NO,REV_AT_EPOCH,BSTAR,MEAN_MOTION_DOT,MEAN_MOTION_DDOT
TIANMU-1 20,2023-208B,2026-07-17T11:33:10.074240,15.33185485,.00065532,97.4473,315.6157,203.3202,156.7744,0,U,58661,999,14206,.14063046E-3,.443E-4,0
TIANMU-1 21,2023-208C,2026-07-17T14:51:05.215968,15.35578678,.00069304,97.4534,318.5685,195.2299,164.8737,0,U,58662,999,14223,.15968826E-3,.5443E-4,0
TIANMU-1 22,2023-208D,2026-07-17T14:09:42.458400,15.31446647,.00029801,97.4526,314.9677,207.5741,152.5343,0,U,58663,999,14198,.13321883E-3,.3967E-4,0
TIANMU-1 15,2024-004A,2026-07-17T15:18:01.931904,15.26928037,.00062432,97.4671,24.8282,218.2692,141.8105,0,U,58700,999,14042,.10949992E-3,.2821E-4,0
TIANMU-1 16,2024-004B,2026-07-17T15:02:37.535712,15.27030944,.00045845,97.4619,24.0328,234.2531,125.8281,0,U,58701,999,14042,.10216678E-3,.2635E-4,0
TIANMU-1 17,2024-004C,2026-07-17T14:41:43.496736,15.27028662,.00040305,97.4646,24.5144,240.4609,119.6228,0,U,58702,999,14041,.10300746E-3,.2657E-4,0
TIANMU-1 18,2024-004D,2026-07-17T15:41:51.129600,15.26943844,.00039586,97.4663,24.8190,213.8149,146.2838,0,U,58703,999,14042,.1041279E-3,.268E-4,0
INSAT-3DS,2024-033A,2026-07-17T15:22:27.007104,1.00270812,.00011586,0.0841,264.3115,223.5226,120.2950,0,U,58990,999,4737,0,-.165E-5,0
METEOR-M2 4,2024-039A,2026-07-17T15:23:45.143808,14.22432280,.00082581,98.7027,157.5596,82.7369,277.4747,0,U,59051,999,12359,.14058087E-4,-.12E-6,0
GOES 19,2024-119A,2026-07-17T14:37:39.139392,1.00270922,.00003907,0.0157,138.2353,61.7008,239.7004,0,U,60133,999,726,0,-.258E-5,0
MTG-S1,2025-143A,2026-07-17T14:58:52.105152,1.00274262,.00033571,0.5833,345.6907,260.0967,273.9825,0,U,64723,999,372,0,-.16E-6,0
METOP-SGA1,2025-172A,2026-07-14T18:20:46.629312,14.19819127,.00070989,98.6631,254.9090,333.3306,26.7504,0,U,65159,999,4770,.2916334E-4,.19E-6,0
FENGYUN 3H,2025-219A,2026-07-17T06:30:15.435936,14.19924971,.00010925,98.6770,138.4561,62.3370,297.7917,0,U,65815,999,4165,.21451496E-4,.2E-7,0
